[Satellite]
VERSION=1.1
NAME=GRIFEX
NICKNAME=GRIFEX
TLE1=1 40379U 15003D   17186.23975701  .00000798  00000-0  40613-4 0  9991
TLE2=2 40379  99.1250  11.5399 0141291 310.5822  48.3176 15.12980639133604
